{
  "type": "FeatureCollection",
  "features": [
    {
      "type": "Feature",
      "properties": {
        "norad_id": 29954,
        "name": "FENGYUN 1C DEB",
        "group": "fengyun-1c-debris",
        "lat": -59.06253340836296,
        "lon": 51.10320969305682,
        "alt_km": 751.1488491845148,
        "timestamp": "2025-12-20T07:33:51.085735+00:00",
        "meta_object_name": "FENGYUN 1C DEB",
        "meta_object_id": "1999-025KC",
        "meta_epoch": "2025-12-19T08:24:22.569408",
        "meta_mean_motion": 14.34260686,
        "meta_eccentricity": 0.0074545,
        "meta_inclination": 100.1502,
        "meta_ra_of_asc_node": 32.5811,
        "meta_arg_of_pericenter": 250.5919,
        "meta_mean_anomaly": 108.7193,
        "meta_ephemeris_type": 0,
        "meta_classification_type": "U",
        "meta_norad_cat_id": 29954,
        "meta_element_set_no": 999,
        "meta_rev_at_epoch": 98282,
        "meta_bstar": 0.00061375,
        "meta_mean_motion_dot": 1.719e-05,
        "meta_mean_motion_ddot": 0,
        "tle_line1": "1 29954U 99025KC  25353.35026122  .00001719  00000+0  61375-3 0  9995",
        "tle_line2": "2 29954 100.1502  32.5811 0074545 250.5919 108.7193 14.34260686982824"
      },
      "geometry": {
        "type": "Point",
        "coordinates": [
          51.10320969305682,
          -59.06253340836296
        ]
      }
    },
    {
      "type": "Feature",
      "properties": {
        "norad_id": 29955,
        "name": "FENGYUN 1C DEB",
        "group": "fengyun-1c-debris",
        "lat": 39.00005156083264,
        "lon": -96.81307878677983,
        "alt_km": 760.7611403469691,
        "timestamp": "2025-12-20T07:33:51.085746+00:00",
        "meta_object_name": "FENGYUN 1C DEB",
        "meta_object_id": "1999-025KD",
        "meta_epoch": "2025-12-19T11:10:20.172000",
        "meta_mean_motion": 14.38296459,
        "meta_eccentricity": 0.0008003,
        "meta_inclination": 99.274,
        "meta_ra_of_asc_node": 74.6667,
        "meta_arg_of_pericenter": 229.3292,
        "meta_mean_anomaly": 194.0853,
        "meta_ephemeris_type": 0,
        "meta_classification_type": "U",
        "meta_norad_cat_id": 29955,
        "meta_element_set_no": 999,
        "meta_rev_at_epoch": 98158,
        "meta_bstar": 0.0010225,
        "meta_mean_motion_dot": 3.063e-05,
        "meta_mean_motion_ddot": 0,
        "tle_line1": "1 29955U 99025KD  25353.46551125  .00003063  00000+0  10225-2 0  9995",
        "tle_line2": "2 29955  99.2740  74.6667 0008003 229.3292 194.0853 14.38296459981581"
      },
      "geometry": {
        "type": "Point",
        "coordinates": [
          -96.81307878677983,
          39.00005156083264
        ]
      }
    },
    {
      "type": "Feature",
      "properties": {
        "norad_id": 29956,
        "name": "FENGYUN 1C DEB",
        "group": "fengyun-1c-debris",
        "lat": 48.890665797043994,
        "lon": 12.735344192924808,
        "alt_km": 844.8770187519949,
        "timestamp": "2025-12-20T07:33:51.085756+00:00",
        "meta_object_name": "FENGYUN 1C DEB",
        "meta_object_id": "1999-025KE",
        "meta_epoch": "2025-12-19T23:07:07.742784",
        "meta_mean_motion": 14.06172028,
        "meta_eccentricity": 0.00533403,
        "meta_inclination": 98.7908,
        "meta_ra_of_asc_node": 22.6077,
        "meta_arg_of_pericenter": 357.2659,
        "meta_mean_anomaly": 71.6336,
        "meta_ephemeris_type": 0,
        "meta_classification_type": "U",
        "meta_norad_cat_id": 29956,
        "meta_element_set_no": 999,
        "meta_rev_at_epoch": 97151,
        "meta_bstar": 0.00014918588,
        "meta_mean_motion_dot": 2.06e-06,
        "meta_mean_motion_ddot": 0,
        "tle_line1": "1 29956U 99025KE  25353.96328406  .00000206  00000+0  14919-3 0  9996",
        "tle_line2": "2 29956  98.7908  22.6077 0053340 357.2659  71.6336 14.06172028971510"
      },
      "geometry": {
        "type": "Point",
        "coordinates": [
          12.735344192924808,
          48.890665797043994
        ]
      }
    },
    {
      "type": "Feature",
      "properties": {
        "norad_id": 29957,
        "name": "FENGYUN 1C DEB",
        "group": "fengyun-1c-debris",
        "lat": -68.90221824573779,
        "lon": -82.27921316850701,
        "alt_km": 730.5328246723202,
        "timestamp": "2025-12-20T07:33:51.085766+00:00",
        "meta_object_name": "FENGYUN 1C DEB",
        "meta_object_id": "1999-025KF",
        "meta_epoch": "2025-12-19T07:24:00.253728",
        "meta_mean_motion": 14.5132991,
        "meta_eccentricity": 0.0037355,
        "meta_inclination": 98.9199,
        "meta_ra_of_asc_node": 120.6738,
        "meta_arg_of_pericenter": 159.1038,
        "meta_mean_anomaly": 233.7026,
        "meta_ephemeris_type": 0,
        "meta_classification_type": "U",
        "meta_norad_cat_id": 29957,
        "meta_element_set_no": 999,
        "meta_rev_at_epoch": 97587,
        "meta_bstar": 0.0030533,
        "meta_mean_motion_dot": 0.0001224,
        "meta_mean_motion_ddot": 0,
        "tle_line1": "1 29957U 99025KF  25353.30833627  .00012240  00000+0  30533-2 0  9991",
        "tle_line2": "2 29957  98.9199 120.6738 0037355 159.1038 233.7026 14.51329910975870"
      },
      "geometry": {
        "type": "Point",
        "coordinates": [
          -82.27921316850701,
          -68.90221824573779
        ]
      }
    },
    {
      "type": "Feature",
      "properties": {
        "norad_id": 29958,
        "name": "FENGYUN 1C DEB",
        "group": "fengyun-1c-debris",
        "lat": -59.877274099868245,
        "lon": 173.21632680403144,
        "alt_km": 837.9322233568682,
        "timestamp": "2025-12-20T07:33:51.085776+00:00",
        "meta_object_name": "FENGYUN 1C DEB",
        "meta_object_id": "1999-025KG",
        "meta_epoch": "2025-12-19T21:56:05.635968",
        "meta_mean_motion": 14.14465828,
        "meta_eccentricity": 0.00540367,
        "meta_inclination": 98.668,
        "meta_ra_of_asc_node": 8.0701,
        "meta_arg_of_pericenter": 312.4929,
        "meta_mean_anomaly": 47.1685,
        "meta_ephemeris_type": 0,
        "meta_classification_type": "U",
        "meta_norad_cat_id": 29958,
        "meta_element_set_no": 999,
        "meta_rev_at_epoch": 97552,
        "meta_bstar": 0.00024224855,
        "meta_mean_motion_dot": 4.28e-06,
        "meta_mean_motion_ddot": 0,
        "tle_line1": "1 29958U 99025KG  25353.91395412  .00000428  00000+0  24225-3 0  9991",
        "tle_line2": "2 29958  98.6680   8.0701 0054036 312.4929  47.1685 14.14465828975528"
      },
      "geometry": {
        "type": "Point",
        "coordinates": [
          173.21632680403144,
          -59.877274099868245
        ]
      }
    },
    {
      "type": "Feature",
      "properties": {
        "norad_id": 29959,
        "name": "FENGYUN 1C DEB",
        "group": "fengyun-1c-debris",
        "lat": -11.19346306194998,
        "lon": 26.528120869394346,
        "alt_km": 855.0323283835405,
        "timestamp": "2025-12-20T07:33:51.085786+00:00",
        "meta_object_name": "FENGYUN 1C DEB",
        "meta_object_id": "1999-025KH",
        "meta_epoch": "2025-12-19T13:33:42.531840",
        "meta_mean_motion": 14.06017345,
        "meta_eccentricity": 0.0041465,
        "meta_inclination": 98.8073,
        "meta_ra_of_asc_node": 24.0407,
        "meta_arg_of_pericenter": 308.3941,
        "meta_mean_anomaly": 205.4306,
        "meta_ephemeris_type": 0,
        "meta_classification_type": "U",
        "meta_norad_cat_id": 29959,
        "meta_element_set_no": 999,
        "meta_rev_at_epoch": 97036,
        "meta_bstar": 0.00013739,
        "meta_mean_motion_dot": 1.84e-06,
        "meta_mean_motion_ddot": 0,
        "tle_line1": "1 29959U 99025KH  25353.56507560  .00000184  00000+0  13739-3 0  9999",
        "tle_line2": "2 29959  98.8073  24.0407 0041465 308.3941 205.4306 14.06017345970362"
      },
      "geometry": {
        "type": "Point",
        "coordinates": [
          26.528120869394346,
          -11.19346306194998
        ]
      }
    },
    {
      "type": "Feature",
      "properties": {
        "norad_id": 29960,
        "name": "FENGYUN 1C DEB",
        "group": "fengyun-1c-debris",
        "lat": -12.300373166125745,
        "lon": -18.463789365886218,
        "alt_km": 833.7108204067008,
        "timestamp": "2025-12-20T07:33:51.085796+00:00",
        "meta_object_name": "FENGYUN 1C DEB",
        "meta_object_id": "1999-025KJ",
        "meta_epoch": "2025-12-19T21:43:55.627680",
        "meta_mean_motion": 14.16415605,
        "meta_eccentricity": 0.00908122,
        "meta_inclination": 98.6148,
        "meta_ra_of_asc_node": 339.2455,
        "meta_arg_of_pericenter": 265.4824,
        "meta_mean_anomaly": 153.3901,
        "meta_ephemeris_type": 0,
        "meta_classification_type": "U",
        "meta_norad_cat_id": 29960,
        "meta_element_set_no": 999,
        "meta_rev_at_epoch": 97556,
        "meta_bstar": 0.00031444428,
        "meta_mean_motion_dot": 6.07e-06,
        "meta_mean_motion_ddot": 0,
        "tle_line1": "1 29960U 99025KJ  25353.90550495  .00000607  00000+0  31444-3 0  9997",
        "tle_line2": "2 29960  98.6148 339.2455 0090812 265.4824 153.3901 14.16415605975563"
      },
      "geometry": {
        "type": "Point",
        "coordinates": [
          -18.463789365886218,
          -12.300373166125745
        ]
      }
    }
  ]
}